STARLINK-35460          
1 66328C 25253K   26106.47756944 -.00005932  00000+0 -21479-3 0  1069
2 66328  43.0033 359.3786 0001579 269.8998 335.9906 15.27591205    17
STARLINK-35505          
1 66329C 25253L   26106.47131944 -.00006809  00000+0 -24660-3 0  1066
2 66329  43.0035 359.1396 0001284 260.9920  63.7016 15.27583057    19
STARLINK-35512          
1 66330C 25253M   26106.42479167 -.00023180  00000+0 -83980-3 0  1066
2 66330  43.0038 359.5931 0001476 269.9295  80.7724 15.27580806    14
STARLINK-35257          
1 66331C 25253N   26106.45048611 -.00016161  00000+0 -58546-3 0  1067
2 66331  43.0020 358.9656 0001448 256.2942  73.8705 15.27580850    11
STARLINK-35322          
1 66332C 25253P   26106.44354167 -.00017287  00000+0 -62607-3 0  1066
2 66332  43.0028 359.1452 0001456 267.9860 327.4471 15.27590776    10
STARLINK-35400          
1 66333C 25253Q   26106.38034722 -.00025155  00000+0 -91104-3 0  1069
2 66333  43.0023   0.0957 0001530 270.8828  88.9923 15.27593163    12
STARLINK-35407          
1 66334C 25253R   26106.39354167 -.00024912  00000+0 -90222-3 0  1069
2 66334  43.0020 359.3280 0001464 271.7967  90.7909 15.27593916    10
STARLINK-35417          
1 66335C 25253S   26106.45743056 -.00014906  00000+0 -53994-3 0  1063
2 66335  43.0037 359.2532 0001443 265.7697 328.3115 15.27583402    16
STARLINK-35404          
1 66336C 25253T   26106.46576389 -.00010463  00000+0 -37905-3 0  1066
2 66336  43.0032 359.0817 0001147 269.7595  59.7320 15.27576489    18
STARLINK-34783          
1 66337C 25253U   26106.38590278 -.00023026  00000+0 -83394-3 0  1063
2 66337  43.0021   0.0460 0001601 269.6860 127.8425 15.27591646    18
STARLINK-35477          
1 66338C 25253V   26106.42409722 -.00021352  00000+0 -77379-3 0  1068
2 66338  43.0031 359.3070 0001447 273.5112 193.6901 15.27570862    16
STARLINK-35443          
1 66339C 25253W   26106.43034722 -.00018480  00000+0 -66939-3 0  1062
2 66339  43.0037 359.3512 0001331 267.1891 199.0033 15.27585568    14
STARLINK-35218          
1 66340C 25253X   26106.38659722 -.00022518  00000+0 -81578-3 0  1064
2 66340  43.0034 359.9044 0001621 269.3403 188.6299 15.27582729    18
STARLINK-35522          
1 66341C 25253Y   26106.40534722 -.00030466  00000+0 -11036-2 0  1062
2 66341  43.0037 359.6650 0001567 269.8336 347.9606 15.27588502    18
STARLINK-35535          
1 66342C 25253Z   26106.44145833 -.00016014  00000+0 -57994-3 0  1065
2 66342  43.0039 359.3917 0001480 266.9409 217.9580 15.27591065    12
STARLINK-35467          
1 66343C 25253AA  26106.41229167 -.00029258  00000+0 -10595-2 0  1065
2 66343  43.0037 359.7113 0001601 270.1684 350.4741 15.27598107    16
STARLINK-35511          
1 66344C 25253AB  26106.43243056 -.00214540  00000+0 -77606-2 0  1067
2 66344  43.0019 358.9785 0001422 270.7616 355.5059 15.27726467    15
STARLINK-35440          
1 66345C 25253AC  26106.46993056 -.00009300  00000+0 -33677-3 0  1060
2 66345  43.0039 359.2451 0001449 265.9521   8.6370 15.27589465    19
STARLINK-35482          
1 66346C 25253AD  26106.45604167 -.00014240  00000+0 -51575-3 0  1068
2 66346  43.0028 359.0351 0001297 264.2704  54.1342 15.27587427    12
STARLINK-35438          
1 66347C 25253AE  26106.43868056 -.00022922  00000+0 -83032-3 0  1065
2 66347  43.0012 359.0109 0001412 266.8742   5.4705 15.27586894    15
STARLINK-35849          
1 66348C 25254A   26106.43868056 -.00013217  00000+0 -44543-3 0  1068
2 66348  53.1599  57.3837 0001366  83.6742 196.2678 15.30200444    13
STARLINK-35848          
1 66349C 25254B   26106.44909722 -.00012027  00000+0 -40539-3 0  1065
2 66349  53.1584  57.0936 0001292  88.2656  11.2388 15.30194315    11
STARLINK-35829          
1 66350C 25254C   26106.38243056  .00023185  00000+0  78138-3 0  1062
2 66350  53.1583  57.2885 0001282  84.4246  65.8047 15.30181528    18
STARLINK-35828          
1 66351C 25254D   26106.47270833 -.00025212  00000+0 -84982-3 0  1065
2 66351  53.1580  56.7986 0001287  88.0445 234.6676 15.30200517    12
STARLINK-35850          
1 66352C 25254E   26106.40395833  .00013038  00000+0  43939-3 0  1065
2 66352  53.1587  56.9797 0001249  87.5815 285.9969 15.30186854    16
STARLINK-35869          
1 66353C 25254F   26106.41576389  .00008440  00000+0  28447-3 0  1062
2 66353  53.1593  56.8552 0001441  82.1716  31.3712 15.30186492    14
STARLINK-35895          
1 66354C 25254G   26106.42895833 -.00008121  00000+0 -27367-3 0  1060
2 66354  53.1600  57.4601 0001380  80.3069 134.4039 15.30200396    16
STARLINK-35861          
1 66355C 25254H   26106.40048611  .00016378  00000+0  55197-3 0  1066
2 66355  53.1598  57.5141 0001375  80.1873  12.5101 15.30184589    19
STARLINK-35851          
1 66356C 25254J   26106.41715278  .00001449  00000+0  48866-4 0  1067
2 66356  53.1598  57.4025 0001418  83.4695 118.5542 15.30178852    18
STARLINK-35817          
1 66357C 25254K   26106.39701389  .00016633  00000+0  56066-3 0  1064
2 66357  53.1589  57.3923 0001516  86.0129  57.3423 15.30179668    19
STARLINK-35807          
1 66358C 25254L   26106.39493056  .00017238  00000+0  58094-3 0  1069
2 66358  53.1586  57.3667 0001336  84.9930  64.3282 15.30184655    12
STARLINK-35805          
1 66359C 25254M   26106.46715278 -.00030488  00000+0 -10275-2 0  1063
2 66359  53.1583  56.8113 0001275  85.7845 212.1227 15.30207804    10
STARLINK-35823          
1 66360C 25254N   26106.39770833  .00015742  00000+0  53051-3 0  1069
2 66360  53.1588  56.9951 0001110  82.8238 262.1192 15.30187847    10
STARLINK-35813          
1 66361C 25254P   26106.40118056  .00011043  00000+0  37222-3 0  1067
2 66361  53.1585  57.0482 0001559  88.5455 240.6400 15.30182611    17
STARLINK-35822          
1 66362C 25254Q   26106.44215278 -.00014703  00000+0 -49555-3 0  1066
2 66362  53.1601  57.3425 0001349  83.0223 227.6893 15.30199194    12
STARLINK-35806          
1 66363C 25254R   26106.42409722  .00001088  00000+0  36671-4 0  1060
2 66363  53.1597  57.5064 0001245  77.9186  92.4557 15.30186669    11
STARLINK-35797          
1 66364C 25254S   26106.38937500  .00020616  00000+0  69484-3 0  1061
2 66364  53.1598  57.5525 0001435  80.7568 316.5148 15.30180803    12
STARLINK-35827          
1 66365C 25254T   26106.38312500  .00025754  00000+0  86829-3 0  1069
2 66365  53.1584  57.3165 0001292  81.1899  55.3671 15.30168022    17
STARLINK-35845          
1 66366C 25254U   26106.44840278 -.00015060  00000+0 -50753-3 0  1063
2 66366  53.1586  57.1050 0001372  86.3826   3.4806 15.30201892    14
STARLINK-35846          
1 66367C 25254V   26106.43937500 -.00011498  00000+0 -38755-3 0  1067
2 66367  53.1592  56.7540 0001317  86.9864 150.8816 15.30194998    14
STARLINK-34861          
1 66368C 25254W   26106.44423611 -.00015848  00000+0 -53414-3 0  1064
2 66368  53.1584  54.7857 0001285  89.2349  62.0505 15.30199154    11
STARLINK-35795          
1 66369C 25254X   26106.39215278  .00013331  00000+0  44917-3 0  1068
2 66369  53.1584  55.0970 0001372  84.3723 104.9324 15.30195420    18
STARLINK-35824          
1 66370C 25254Y   26106.37826389  .00025288  00000+0  85229-3 0  1064
2 66370  53.1584  55.1271 0001314  85.9861  44.2308 15.30179136    15
STARLINK-35804          
1 66371C 25254Z   26106.42687500 -.00009331  00000+0 -31437-3 0  1066
2 66371  53.1583  54.8312 0001159  93.9748 339.0526 15.30208708    12
STARLINK-35821          
1 66372C 25254AA  26106.44631944 -.00019843  00000+0 -66874-3 0  1062
2 66372  53.1585  54.7064 0001319  86.8577 110.8033 15.30202594    12
STARLINK-35809          
1 66373C 25254AB  26106.38312500  .00018226  00000+0  61424-3 0  1068
2 66373  53.1585  54.9648 0001264  83.5026 143.3024 15.30184216    16
STARLINK-35831          
1 66374C 25254AC  26106.47479167 -.00034315  00000+0 -11566-2 0  1062
2 66374  53.1600  54.2158 0001360  86.4195  88.4892 15.30208034    17
STARLINK-35826          
1 66375C 25254AD  26106.38381944  .00021085  00000+0  71058-3 0  1069
2 66375  53.1587  54.4657 0001369  82.9040  37.8402 15.30183615    19
STARLINK-35139          
1 66380C 25257A   26106.41298611 -.00020349  00000+0 -68585-3 0  1065
2 66380  53.1593  41.6898 0001351  84.3190 171.0772 15.30201240    16
STARLINK-35158          
1 66381C 25257B   26106.41645833 -.00022204  00000+0 -74834-3 0  1064
2 66381  53.1604  42.1544 0001330  84.5611 305.6697 15.30203582    13
STARLINK-35639          
1 66382C 25257C   26106.46298611 -.00046136  00000+0 -15546-2 0  1062
2 66382  53.1605  41.9038 0001305  85.9417 218.1852 15.30221059    11
STARLINK-35690          
1 66383C 25257D   26106.41645833 -.00018368  00000+0 -61900-3 0  1062
2 66383  53.1598  41.5925 0001282  84.6571 230.5822 15.30204389    17
STARLINK-35662          
1 66384C 25257E   26106.45534722 -.00035947  00000+0 -12115-2 0  1066
2 66384  53.1600  41.3882 0001300  86.1069  95.1114 15.30209620    14
STARLINK-35659          
1 66385C 25257F   26106.44909722 -.00032818  00000+0 -11061-2 0  1065
2 66385  53.1595  41.4753 0001344  85.6451  32.0491 15.30208413    10
STARLINK-35651          
1 66386C 25257G   26106.47201389 -.00037199  00000+0 -12537-2 0  1069
2 66386  53.1603  41.2873 0001334 104.5719 180.1390 15.30212344    10
STARLINK-35661          
1 66387C 25257H   26106.43312500 -.00021653  00000+0 -72972-3 0  1062
2 66387  53.1603  41.4446 0001310  84.2091 357.7937 15.30204884    19
STARLINK-35647          
1 66388C 25257J   26106.44701389 -.00028938  00000+0 -97522-3 0  1062
2 66388  53.1605  41.3678 0001338  87.9453  76.4246 15.30208755    19
STARLINK-35694          
1 66389C 25257K   26106.46576389 -.00035174  00000+0 -11855-2 0  1069
2 66389  53.1602  41.3261 0001237  89.9024 154.5484 15.30209657    13
STARLINK-35665          
1 66390C 25257L   26106.39631944 -.00004161  00000+0 -14024-3 0  1066
2 66390  53.1591  41.7594 0001158  82.3354  75.3968 15.30194217    12
